{"type": "FeatureCollection", "features": [ {"type": "Feature", "properties": {"norad_id": 65304, "name": "DRAGON CRS-33", "group": "stations", "lat": 24.42268032262444, "lon": -84.5818964392896, "alt_km": 415.8136004564494, "timestamp": "2025-12-17T23:38:05.646941+00:00", "meta": {"OBJECT_NAME": "DRAGON CRS-33", "OBJECT_ID": "2025-186A", "EPOCH": "2025-12-17T13:42:43.375968", "MEAN_MOTION": 15.49636687, "ECCENTRICITY": 0.00031828, "INCLINATION": 51.631, "RA_OF_ASC_NODE": 118.5527, "ARG_OF_PERICENTER": 262.6214, "MEAN_ANOMALY": 97.4413, "EPHEMERIS_TYPE": 0, "CLASSIFICATION_TYPE": "U", "NORAD_CAT_ID": 65304, "ELEMENT_SET_NO": 999, "REV_AT_EPOCH": 11, "BSTAR": 0.00014273627, "MEAN_MOTION_DOT": 7.597e-05, "MEAN_MOTION_DDOT": 0}, "tle": {"line1": "1 65304U 25186A   25351.57133537  .00007597  00000+0  14274-3 0  9998", "line2": "2 65304  51.6310 118.5527 0003182 262.6214  97.4413 15.49636687   117"}}, "geometry": {"type": "Point", "coordinates": [-84.5818964392896, 24.42268032262444]}}, {"type": "Feature", "properties": {"norad_id": 65586, "name": "PROGRESS-MS 32", "group": "stations", "lat": 24.42267984977411, "lon": -84.58189595555638, "alt_km": 415.8136005108481, "timestamp": "2025-12-17T23:38:05.646951+00:00", "meta": {"OBJECT_NAME": "PROGRESS-MS 32", "OBJECT_ID": "2025-204A", "EPOCH": "2025-12-17T13:42:43.375968", "MEAN_MOTION": 15.49636687, "ECCENTRICITY": 0.00031828, "INCLINATION": 51.631, "RA_OF_ASC_NODE": 118.5527, "ARG_OF_PERICENTER": 262.6214, "MEAN_ANOMALY": 97.4413, "EPHEMERIS_TYPE": 0, "CLASSIFICATION_TYPE": "U", "NORAD_CAT_ID": 65586, "ELEMENT_SET_NO": 999, "REV_AT_EPOCH": 27, "BSTAR": 0.00014273627, "MEAN_MOTION_DOT": 7.597e-05, "MEAN_MOTION_DDOT": 0}, "tle": {"line1": "1 65586U 25204A   25351.57133537  .00007597  00000+0  14274-3 0  9991", "line2": "2 65586  51.6310 118.5527 0003182 262.6214  97.4413 15.49636687   276"}}, "geometry": {"type": "Point", "coordinates": [-84.58189595555638, 24.42267984977411]}}, {"type": "Feature", "properties": {"norad_id": 65616, "name": "CYGNUS NG-23", "group": "stations", "lat": 24.422679376923803, "lon": -84.58189547182315, "alt_km": 415.81360056524954, "timestamp": "2025-12-17T23:38:05.646961+00:00", "meta": {"OBJECT_NAME": "CYGNUS NG-23", "OBJECT_ID": "2025-208A", "EPOCH": "2025-12-17T13:42:43.375968", "MEAN_MOTION": 15.49636687, "ECCENTRICITY": 0.00031828, "INCLINATION": 51.631, "RA_OF_ASC_NODE": 118.5527, "ARG_OF_PERICENTER": 262.6214, "MEAN_ANOMALY": 97.4413, "EPHEMERIS_TYPE": 0, "CLASSIFICATION_TYPE": "U", "NORAD_CAT_ID": 65616, "ELEMENT_SET_NO": 999, "REV_AT_EPOCH": 22, "BSTAR": 0.00014273627, "MEAN_MOTION_DOT": 7.597e-05, "MEAN_MOTION_DDOT": 0}, "tle": {"line1": "1 65616U 25208A   25351.57133537  .00007597  00000+0  14274-3 0  9999", "line2": "2 65616  51.6310 118.5527 0003182 262.6214  97.4413 15.49636687   225"}}, "geometry": {"type": "Point", "coordinates": [-84.58189547182315, 24.422679376923803]}}, {"type": "Feature", "properties": {"norad_id": 65729, "name": "DRAGONFLY", "group": "stations", "lat": -19.746282825249583, "lon": -54.60434337503668, "alt_km": 352.5437354855885, "timestamp": "2025-12-17T23:38:05.646971+00:00", "meta": {"OBJECT_NAME": "DRAGONFLY", "OBJECT_ID": "1998-067XH", "EPOCH": "2025-12-17T13:37:12.344736", "MEAN_MOTION": 15.73531298, "ECCENTRICITY": 0.00072061, "INCLINATION": 51.6243, "RA_OF_ASC_NODE": 111.0116, "ARG_OF_PERICENTER": 308.514, "MEAN_ANOMALY": 51.5212, "EPHEMERIS_TYPE": 0, "CLASSIFICATION_TYPE": "U", "NORAD_CAT_ID": 65729, "ELEMENT_SET_NO": 999, "REV_AT_EPOCH": 1392, "BSTAR": 0.0011077639, "MEAN_MOTION_DOT": 0.00160588, "MEAN_MOTION_DDOT": 0}, "tle": {"line1": "1 65729U 98067XH  25351.56750399  .00160588  00000+0  11078-2 0  9995", "line2": "2 65729  51.6243 111.0116 0007206 308.5140  51.5212 15.73531298 13924"}}, "geometry": {"type": "Point", "coordinates": [-54.60434337503668, -19.746282825249583]}}, {"type": "Feature", "properties": {"norad_id": 65731, "name": "1998-067XK", "group": "stations", "lat": 49.04169204185054, "lon": -135.2994966808752, "alt_km": 364.6803503203455, "timestamp": "2025-12-17T23:38:05.646982+00:00", "meta": {"OBJECT_NAME": "1998-067XK", "OBJECT_ID": "1998-067XK", "EPOCH": "2025-12-17T14:00:04.713696", "MEAN_MOTION": 15.66666293, "ECCENTRICITY": 0.00047593, "INCLINATION": 51.6289, "RA_OF_ASC_NODE": 112.64, "ARG_OF_PERICENTER": 277.2608, "MEAN_ANOMALY": 82.7846, "EPHEMERIS_TYPE": 0, "CLASSIFICATION_TYPE": "U", "NORAD_CAT_ID": 65731, "ELEMENT_SET_NO": 999, "REV_AT_EPOCH": 1390, "BSTAR": 0.00079228691, "MEAN_MOTION_DOT": 0.00085225, "MEAN_MOTION_DDOT": 0}, "tle": {"line1": "1 65731U 98067XK  25351.58338789  .00085225  00000+0  79229-3 0  9992", "line2": "2 65731  51.6289 112.6400 0004759 277.2608  82.7846 15.66666293 13904"}}, "geometry": {"type": "Point", "coordinates": [-135.2994966808752, 49.04169204185054]}}, {"type": "Feature", "properties": {"norad_id": 65732, "name": "RSP-03", "group": "stations", "lat": 33.23916866226283, "lon": -101.51217422013296, "alt_km": 357.9906470899923, "timestamp": "2025-12-17T23:38:05.646992+00:00", "meta": {"OBJECT_NAME": "RSP-03", "OBJECT_ID": "1998-067XL", "EPOCH": "2025-12-17T13:53:35.595744", "MEAN_MOTION": 15.69845633, "ECCENTRICITY": 0.0005617, "INCLINATION": 51.6262, "RA_OF_ASC_NODE": 111.8477, "ARG_OF_PERICENTER": 283.4279, "MEAN_ANOMALY": 76.6092, "EPHEMERIS_TYPE": 0, "CLASSIFICATION_TYPE": "U", "NORAD_CAT_ID": 65732, "ELEMENT_SET_NO": 999, "REV_AT_EPOCH": 1392, "BSTAR": 0.00093703449, "MEAN_MOTION_DOT": 0.00115432, "MEAN_MOTION_DDOT": 0}, "tle": {"line1": "1 65732U 98067XL  25351.57888421  .00115432  00000+0  93703-3 0  9992", "line2": "2 65732  51.6262 111.8477 0005617 283.4279  76.6092 15.69845633 13925"}}, "geometry": {"type": "Point", "coordinates": [-101.51217422013296, 33.23916866226283]}}, {"type": "Feature", "properties": {"norad_id": 65733, "name": "GHS-01", "group": "stations", "lat": 0.21136716338156702, "lon": -71.98735930620478, "alt_km": 343.0760347769401, "timestamp": "2025-12-17T23:38:05.647002+00:00", "meta": {"OBJECT_NAME": "GHS-01", "OBJECT_ID": "1998-067XM", "EPOCH": "2025-12-17T15:16:18.486912", "MEAN_MOTION": 15.76951537, "ECCENTRICITY": 0.00078677, "INCLINATION": 51.6275, "RA_OF_ASC_NODE": 109.9788, "ARG_OF_PERICENTER": 312.8661, "MEAN_ANOMALY": 47.1678, "EPHEMERIS_TYPE": 0, "CLASSIFICATION_TYPE": "U", "NORAD_CAT_ID": 65733, "ELEMENT_SET_NO": 999, "REV_AT_EPOCH": 1395, "BSTAR": 0.001249396, "MEAN_MOTION_DOT": 0.00211757, "MEAN_MOTION_DDOT": 0}, "tle": {"line1": "1 65733U 98067XM  25351.63632508  .00211757  00000+0  12494-2 0  9997", "line2": "2 65733  51.6275 109.9788 0007867 312.8661  47.1678 15.76951537 13959"}}, "geometry": {"type": "Point", "coordinates": [-71.98735930620478, 0.21136716338156702]}}, {"type": "Feature", "properties": {"norad_id": 65941, "name": "YOTSUBA-KULOVER", "group": "stations", "lat": 49.25979279580847, "lon": -133.3119042383209, "alt_km": 381.42084566830727, "timestamp": "2025-12-17T23:38:05.647015+00:00", "meta": {"OBJECT_NAME": "YOTSUBA-KULOVER", "OBJECT_ID": "1998-067XN", "EPOCH": "2025-12-17T15:30:04.341312", "MEAN_MOTION": 15.60110831, "ECCENTRICITY": 0.00015491, "INCLINATION": 51.6281, "RA_OF_ASC_NODE": 115.3056, "ARG_OF_PERICENTER": 303.2507, "MEAN_ANOMALY": 56.8338, "EPHEMERIS_TYPE": 0, "CLASSIFICATION_TYPE": "U", "NORAD_CAT_ID": 65941, "ELEMENT_SET_NO": 999, "REV_AT_EPOCH": 1062, "BSTAR": 0.00071229285, "MEAN_MOTION_DOT": 0.00058878, "MEAN_MOTION_DDOT": 0}, "tle": {"line1": "1 65941U 98067XN  25351.64588358  .00058878  00000+0  71229-3 0  9997", "line2": "2 65941  51.6281 115.3056 0001549 303.2507  56.8338 15.60110831 10628"}}, "geometry": {"type": "Point", "coordinates": [-133.3119042383209, 49.25979279580847]}}, {"type": "Feature", "properties": {"norad_id": 65942, "name": "BOTAN", "group": "stations", "lat": 28.851791020625992, "lon": -93.11083096779463, "alt_km": 374.0481533120819, "timestamp": "2025-12-17T23:38:05.647025+00:00", "meta": {"OBJECT_NAME": "BOTAN", "OBJECT_ID": "1998-067XP", "EPOCH": "2025-12-17T15:21:45.594720", "MEAN_MOTION": 15.63897894, "ECCENTRICITY": 0.00028568, "INCLINATION": 51.6282, "RA_OF_ASC_NODE": 114.5172, "ARG_OF_PERICENTER": 279.3266, "MEAN_ANOMALY": 80.7406, "EPHEMERIS_TYPE": 0, "CLASSIFICATION_TYPE": "U", "NORAD_CAT_ID": 65942, "ELEMENT_SET_NO": 999, "REV_AT_EPOCH": 1063, "BSTAR": 0.00098815629, "MEAN_MOTION_DOT": 0.00095351, "MEAN_MOTION_DDOT": 0}, "tle": {"line1": "1 65942U 98067XP  25351.64011105  .00095351  00000+0  98816-3 0  9997", "line2": "2 65942  51.6282 114.5172 0002856 279.3266  80.7406 15.63897894 10634"}}, "geometry": {"type": "Point", "coordinates": [-93.11083096779463, 28.851791020625992]}}, {"type": "Feature", "properties": {"norad_id": 65943, "name": "E-KAGAKU-1", "group": "stations", "lat": 49.437238204613315, "lon": -134.15595534918597, "alt_km": 381.0511326185433, "timestamp": "2025-12-17T23:38:05.647035+00:00", "meta": {"OBJECT_NAME": "E-KAGAKU-1", "OBJECT_ID": "1998-067XQ", "EPOCH": "2025-12-17T15:30:12.868992", "MEAN_MOTION": 15.6010188, "ECCENTRICITY": 0.00013526, "INCLINATION": 51.6301, "RA_OF_ASC_NODE": 115.3109, "ARG_OF_PERICENTER": 235.3958, "MEAN_ANOMALY": 124.6907, "EPHEMERIS_TYPE": 0, "CLASSIFICATION_TYPE": "U", "NORAD_CAT_ID": 65943, "ELEMENT_SET_NO": 999, "REV_AT_EPOCH": 1062, "BSTAR": 0.00073264982, "MEAN_MOTION_DOT": 0.00060567, "MEAN_MOTION_DDOT": 0}, "tle": {"line1": "1 65943U 98067XQ  25351.64598228  .00060567  00000+0  73265-3 0  9996", "line2": "2 65943  51.6301 115.3109 0001352 235.3958 124.6907 15.60101880 10629"}}, "geometry": {"type": "Point", "coordinates": [-134.15595534918597, 49.437238204613315]}}]}